NORAD_CAT_ID,OBJECT_NAME,OBJECT_TYPE,EPOCH,MEAN_MOTION,ECCENTRICITY,INCLINATION,RA_OF_ASC_NODE,ARG_OF_PERICENTER,MEAN_ANOMALY,BSTAR,MEAN_MOTION_DOT,MEAN_MOTION_DDOT,TLE_LINE0,TLE_LINE1,TLE_LINE2,SEMIMAJOR_AXIS,PERIOD,APOGEE,PERIGEE,DECAYED
55651.0,STARLINK-5506,PAYLOAD,2023-02-22 16:00:00,15.94574739,0.0037019,70.0,136.7839,163.3465,236.2539,-0.0026799,-0.01089277,0.00036332,0 STARLINK-5506,1 55651U 23021Z   23053.66667824 -.01089277  36332-3 -26799-2 0  9999,2 55651  70.0000 136.7839 0037019 163.3465 236.2539 15.94574739  1304,6667.637,90.306,314.185,264.819,0.0
55651.0,STARLINK-5506,PAYLOAD,2023-02-22 22:00:00,15.94076767,0.0033616,69.9995,136.0549,163.5023,230.5108,-0.0029316,-0.01145249,0.00039649,0 STARLINK-5506,1 55651U 23021Z   23053.91667824 -.01145249  39649-3 -29316-2 0  9991,2 55651  69.9995 136.0549 0033616 163.5023 230.5108 15.94076767  1303,6669.025,90.334,313.309,268.472,0.0
55651.0,STARLINK-5506,PAYLOAD,2023-02-23 08:00:01,15.93163792,0.0029194,69.9999,134.8422,165.3916,98.2875,-0.0029887,-0.01096956,0.00036279,0 STARLINK-5506,1 55651U 23021Z   23054.33334491 -.01096956  36279-3 -29887-2 0  9998,2 55651  69.9999 134.8422 0029194 165.3916  98.2875 15.93163792  1405,6671.573,90.386,312.915,273.961,0.0
55651.0,STARLINK-5506,PAYLOAD,2023-02-23 14:00:01,15.92643593,0.002677,69.9999,134.1145,166.4149,90.4146,-0.003135,-0.01111891,0.00037001,0 STARLINK-5506,1 55651U 23021Z   23054.58334491 -.01111891  37001-3 -31350-2 0  9993,2 55651  69.9999 134.1145 0026770 166.4149  90.4146 15.92643593  1302,6673.025,90.416,312.754,277.027,0.0
55651.0,STARLINK-5506,PAYLOAD,2023-02-23 16:00:00,15.92461249,0.0025896,70.0001,133.8725,167.2105,207.2343,-0.0031458,-0.01102692,0.00036371,0 STARLINK-5506,1 55651U 23021Z   23054.66667824 -.01102692  36371-3 -31458-2 0  9998,2 55651  70.0001 133.8725 0025896 167.2105 207.2343 15.92461249  1457,6673.535,90.426,312.682,278.118,0.0
55651.0,STARLINK-5506,PAYLOAD,2023-02-23 22:00:00,15.91967383,0.0023035,69.9997,133.1458,168.3724,198.5762,-0.0034373,-0.01165742,0.00040105,0 STARLINK-5506,1 55651U 23021Z   23054.91667824 -.01165742  40105-3 -34373-2 0  9990,2 55651  69.9997 133.1458 0023035 168.3724 198.5762 15.91967383  1306,6674.915,90.454,312.156,281.404,0.0
55651.0,STARLINK-5506,PAYLOAD,2023-02-24 02:00:01,15.91567101,0.0021908,70.0,132.6621,169.5719,72.1456,-0.0032637,-0.01082178,0.00034819,0 STARLINK-5506,1 55651U 23021Z   23055.08334491 -.01082178  34819-3 -32637-2 0  9997,2 55651  70.0000 132.6621 0021908 169.5719  72.1456 15.91567101  1529,6676.034,90.477,312.525,283.273,0.0
55651.0,STARLINK-5506,PAYLOAD,2023-02-24 08:00:01,15.91042179,0.0019087,70.0002,131.9368,172.9489,60.4915,-0.0033982,-0.01090692,0.00035143,0 STARLINK-5506,1 55651U 23021Z   23055.33334491 -.01090692  35143-3 -33982-2 0  9990,2 55651  70.0002 131.9368 0019087 172.9489  60.4915 15.91042179  1565,6677.502,90.507,312.113,286.622,0.0
55651.0,STARLINK-5506,PAYLOAD,2023-02-24 14:00:01,15.9051812,0.0016858,70.0,131.2118,176.0747,48.6114,-0.0035332,-0.01099861,0.00035507,0 STARLINK-5506,1 55651U 23021Z   23055.58334491 -.01099861  35507-3 -35332-2 0  9999,2 55651  70.0000 131.2118 0016858 176.0747  48.6114 15.90518120  1308,6678.969,90.537,312.093,289.575,0.0
55651.0,STARLINK-5506,PAYLOAD,2023-02-24 18:00:00,15.90149995,0.0015484,69.9997,130.7294,179.1427,279.4507,-0.0035205,-0.01073612,0.00033835,0 STARLINK-5506,1 55651U 23021Z   23055.75001157 -.01073612  33835-3 -35205-2 0  9995,2 55651  69.9997 130.7294 0015484 179.1427 279.4507 15.90149995  1638,6680.0,90.557,312.208,291.521,0.0
55651.0,STARLINK-5506,PAYLOAD,2023-02-24 22:00:00,15.89842244,0.0013683,69.9997,130.2461,183.2475,149.017,-0.0038748,-0.01159888,0.00038913,0 STARLINK-5506,1 55651U 23021Z   23055.91667824 -.01159888  38913-3 -38748-2 0  9999,2 55651  69.9997 130.2461 0013683 183.2475 149.0170 15.89842244  1304,6680.862,90.575,311.868,293.585,0.0
55651.0,STARLINK-5506,PAYLOAD,2023-02-25 02:00:01,15.89440732,0.001261,70.0002,129.764,187.1056,18.6552,-0.0036449,-0.01068591,0.00033313,0 STARLINK-5506,1 55651U 23021Z   23056.08334491 -.01068591  33313-3 -36449-2 0  9994,2 55651  70.0002 129.7640 0012610 187.1056  18.6552 15.89440732  1685,6681.987,90.598,312.278,295.426,0.0
55651.0,STARLINK-5506,PAYLOAD,2023-02-25 08:00:01,15.88910319,0.0010724,69.9999,129.0408,195.8909,359.6889,-0.0037505,-0.01068635,0.00033145,0 STARLINK-5506,1 55651U 23021Z   23056.33334491 -.01068635  33145-3 -37505-2 0  9998,2 55651  69.9999 129.0408 0010724 195.8909 359.6889 15.88910319  1727,6683.474,90.628,312.506,298.171,0.0
55651.0,STARLINK-5506,PAYLOAD,2023-02-25 14:00:01,15.88390978,0.000939,69.9998,128.3183,207.5555,337.3604,-0.0039107,-0.0108445,0.00033888,0 STARLINK-5506,1 55651U 23021Z   23056.58334491 -.01084450  33888-3 -39107-2 0  9992,2 55651  69.9998 128.3183 0009390 207.5555 337.3604 15.88390978  1768,6684.931,90.658,313.073,300.518,0.0
55651.0,STARLINK-5506,PAYLOAD,2023-02-25 22:00:00,15.87706714,0.0008353,69.9995,127.3553,226.7448,63.2119,-0.0042316,-0.01018118,0.0,0 STARLINK-5506,1 55651U 23021Z   23056.91667824 -.01018118  00000-0 -42316-2 0  9999,2 55651  69.9995 127.3553 0008353 226.7448  63.2119 15.87706714  1817,6686.851,90.697,314.302,303.131,0.0
55651.0,STARLINK-5506,PAYLOAD,2023-02-26 06:00:00,15.87016024,0.0008757,69.9995,126.3939,249.2624,144.8861,-0.0044714,-0.01037687,0.0,0 STARLINK-5506,1 55651U 23021Z   23057.25001157 -.01037687  00000-0 -44714-2 0  9994,2 55651  69.9995 126.3939 0008757 249.2624 144.8861 15.87016024  1872,6688.791,90.736,316.513,304.799,0.0
55651.0,STARLINK-5506,PAYLOAD,2023-02-26 14:00:01,15.86261507,0.0009188,69.9999,125.4337,263.4505,234.0712,-0.0042924,-0.00967878,0.0,0 STARLINK-5506,1 55651U 23021Z   23057.58334491 -.00967878  00000-0 -42924-2 0  9994,2 55651  69.9999 125.4337 0009188 263.4505 234.0712 15.86261507  1305,6690.912,90.779,318.925,306.629,0.0
55651.0,STARLINK-5506,PAYLOAD,2023-02-26 22:00:00,15.85564618,0.0007682,69.9998,124.4735,269.979,330.0439,-0.0045157,-0.00981041,0.0,0 STARLINK-5506,1 55651U 23021Z   23057.91667824 -.00981041  00000-0 -45157-2 0  9999,2 55651  69.9998 124.4735 0007682 269.9790 330.0439 15.85564618  1973,6692.872,90.819,319.879,309.596,0.0
55651.0,STARLINK-5506,PAYLOAD,2023-02-27 14:00:01,15.8416142,0.0003739,70.0003,122.558,259.8768,182.6093,-0.0049179,-0.00993569,0.0,0 STARLINK-5506,1 55651U 23021Z   23058.58334491 -.00993569  00000-0 -49179-2 0  9990,2 55651  70.0003 122.5580 0003739 259.8768 182.6093 15.84161420  1309,6696.824,90.9,321.193,316.185,0.0
55651.0,STARLINK-5506,PAYLOAD,2023-02-27 22:00:01,15.83440176,0.000349,70.0003,121.6008,270.1858,272.335,-0.0049708,-0.00972494,0.0,0 STARLINK-5506,1 55651U 23021Z   23058.91668981 -.00972494  00000-0 -49708-2 0  9993,2 55651  70.0003 121.6008 0003490 270.1858 272.3350 15.83440176  2136,6698.857,90.941,323.06,318.385,0.0
55651.0,STARLINK-5506,PAYLOAD,2023-02-28 14:00:01,15.82072034,0.000372,69.9998,119.6912,263.8605,115.9568,-0.0056731,-0.0103312,0.0,0 STARLINK-5506,1 55651U 23021Z   23059.58334491 -.01033120  00000-0 -56731-2 0  9992,2 55651  69.9998 119.6912 0003720 263.8605 115.9568 15.82072034  1306,6702.719,91.02,327.077,322.09,0.0
55651.0,STARLINK-5506,PAYLOAD,2023-02-28 16:00:00,15.81851022,0.000352,69.9997,119.4528,265.6106,228.6619,-0.0053643,-0.00973563,0.0,0 STARLINK-5506,1 55651U 23021Z   23059.66667824 -.00973563  00000-0 -53643-2 0  9992,2 55651  69.9997 119.4528 0003520 265.6106 228.6619 15.81851022  2255,6703.343,91.033,327.568,322.849,0.0
55651.0,STARLINK-5506,PAYLOAD,2023-02-28 22:00:00,15.81343747,0.0003578,70.0002,118.7373,273.0842,204.1638,-0.0056859,-0.01004156,0.0,0 STARLINK-5506,1 55651U 23021Z   23059.91667824 -.01004156  00000-0 -56859-2 0  9996,2 55651  70.0002 118.7373 0003578 273.0842 204.1638 15.81343747  1303,6704.777,91.062,329.041,324.243,0.0
55651.0,STARLINK-5506,PAYLOAD,2023-03-01 14:00:01,15.79930777,0.0003685,69.9997,116.8329,265.8588,43.6869,-0.006063,-0.01003198,0.0,0 STARLINK-5506,1 55651U 23021Z   23060.58334491 -.01003198  00000-0 -60630-2 0  9999,2 55651  69.9997 116.8329 0003685 265.8588  43.6869 15.79930777  2392,6708.774,91.143,333.111,328.166,0.0
55651.0,STARLINK-5506,PAYLOAD,2023-03-01 22:00:00,15.79214546,0.0003599,69.9996,115.8818,273.3738,131.0553,-0.0061832,-0.00991441,0.0,0 STARLINK-5506,1 55651U 23021Z   23060.91667824 -.00991441  00000-0 -61832-2 0  9996,2 55651  69.9996 115.8818 0003599 273.3738 131.0553 15.79214546  1309,6710.802,91.185,335.082,330.252,0.0
55651.0,STARLINK-5506,PAYLOAD,2023-03-02 20:00:01,15.77261309,0.0003444,69.9999,113.2734,266.4402,304.5379,-0.0066525,-0.00978105,0.0,0 STARLINK-5506,1 55651U 23021Z   23061.83334491 -.00978105  00000-0 -66525-2 0  9995,2 55651  69.9999 113.2734 0003444 266.4402 304.5379 15.77261309  1301,6716.341,91.297,340.519,335.893,0.0
55651.0,STARLINK-5506,PAYLOAD,2023-03-03 12:00:00,15.75845635,0.0003609,70.0003,111.3806,271.6201,121.9108,-0.0070435,-0.00973144,0.0,0 STARLINK-5506,1 55651U 23021Z   23062.50001157 -.00973144  00000-0 -70435-2 0  9993,2 55651  70.0003 111.3806 0003609 271.6201 121.9108 15.75845635  2701,6720.363,91.38,344.653,339.803,0.0
55651.0,STARLINK-5506,PAYLOAD,2023-03-03 14:00:01,15.75687272,0.0003562,69.9998,111.144,266.0977,240.0051,-0.0072848,-0.00996591,0.0,0 STARLINK-5506,1 55651U 23021Z   23062.58334491 -.00996591  00000-0 -72848-2 0  9992,2 55651  69.9998 111.1440 0003562 266.0977 240.0051 15.75687272  1305,6720.813,91.389,345.072,340.284,0.0
55651.0,STARLINK-5506,PAYLOAD,2023-03-03 22:00:00,15.74994145,0.000349,69.9997,110.1986,274.2767,321.6136,-0.0076713,-0.01032712,0.0,0 STARLINK-5506,1 55651U 23021Z   23062.91667824 -.01032712  00000-0 -76713-2 0  9990,2 55651  69.9997 110.1986 0003490 274.2767 321.6136 15.74994145  1305,6722.785,91.429,346.996,342.304,0.0
